GLOBALSTAR M023 [+]     
1 25621U 99004A   24038.18212946  .00000008  00000+0  62509-3 0  9990
2 25621  52.0103 123.7168 0010960 110.4980 263.6238 12.62447040153173
GLOBALSTAR M040 [-]     
1 25622U 99004B   24037.59046250 -.00000096  00000+0  41122-4 0  9995
2 25622  51.9913 128.9459 0001000  75.6376  33.2504 12.61965609152853
GLOBALSTAR M036 [-]     
1 25623U 99004C   24037.96170300 -.00000062  00000+0  30604-3 0  9996
2 25623  51.9963 108.2159 0011884 178.8904 233.2138 11.86559949120055
GLOBALSTAR M038 [-]     
1 25624U 99004D   24038.53593104 -.00000067  00000+0  22764-3 0  9995
2 25624  51.9978  58.9459 0002080 105.9025  61.3577 12.32492655141219
GLOBALSTAR M022 [-]     
1 25649U 99012A   24037.75659785 -.00000052  00000+0  41416-3 0  9991
2 25649  52.0014 200.3986 0001588 257.7994 204.3926 12.02477542116652
GLOBALSTAR M041 [-]     
1 25650U 99012B   24038.48041463 -.00000031  00000+0  69840-3 0  9990
2 25650  52.0024  64.7693 0002283  63.9533 296.1538 11.96656857119180
GLOBALSTAR M046 [-]     
1 25651U 99012C   24038.54525149 -.00000203  00000+0 -12618-2 0  9998
2 25651  52.0040 166.4796 0001757  11.2437  71.7079 12.09383683124044
GLOBALSTAR M037 [+]     
1 25652U 99012D   24037.92167089 -.00000035  00000+0  38269-3 0  9998
2 25652  51.9985 255.3213 0002123 138.2298 325.8548 12.62395537148596
